{"type": "FeatureCollection", "features": [ {"type": "Feature", "properties": {"norad_id": 36230, "name": "FENGYUN 1C DEB", "group": "fengyun-1c-debris", "lat": -80.3600311156826, "lon": 152.601771769202, "alt_km": 1130.8393177725984, "timestamp": "2025-12-22T05:49:03.788133+00:00", "meta": {"OBJECT_NAME": "FENGYUN 1C DEB", "OBJECT_ID": "1999-025DVF", "EPOCH": "2025-12-13T10:59:42.322272", "MEAN_MOTION": 13.75275311, "ECCENTRICITY": 0.0217112, "INCLINATION": 99.5243, "RA_OF_ASC_NODE": 62.57, "ARG_OF_PERICENTER": 140.2886, "MEAN_ANOMALY": 221.4387, "EPHEMERIS_TYPE": 0, "CLASSIFICATION_TYPE": "U", "NORAD_CAT_ID": 36230, "ELEMENT_SET_NO": 999, "REV_AT_EPOCH": 61896, "BSTAR": 0.002128, "MEAN_MOTION_DOT": 2.38e-05, "MEAN_MOTION_DDOT": 0}, "tle": {"line1": "1 36230U 99025DVF 25347.45812873  .00002380  00000+0  21280-2 0  9995", "line2": "2 36230  99.5243  62.5700 0217112 140.2886 221.4387 13.75275311618963"}}, "geometry": {"type": "Point", "coordinates": [152.601771769202, -80.3600311156826]}}, {"type": "Feature", "properties": {"norad_id": 36231, "name": "FENGYUN 1C DEB", "group": "fengyun-1c-debris", "lat": -16.41699383365828, "lon": -26.53738400200465, "alt_km": 822.5290266984784, "timestamp": "2025-12-22T05:49:03.788147+00:00", "meta": {"OBJECT_NAME": "FENGYUN 1C DEB", "OBJECT_ID": "1999-025DVG", "EPOCH": "2025-12-21T04:23:09.041856", "MEAN_MOTION": 14.12011872, "ECCENTRICITY": 0.00601781, "INCLINATION": 98.6893, "RA_OF_ASC_NODE": 329.8533, "ARG_OF_PERICENTER": 309.2717, "MEAN_ANOMALY": 50.3125, "EPHEMERIS_TYPE": 0, "CLASSIFICATION_TYPE": "U", "NORAD_CAT_ID": 36231, "ELEMENT_SET_NO": 999, "REV_AT_EPOCH": 85662, "BSTAR": 9.3049954e-05, "MEAN_MOTION_DOT": 1.3e-06, "MEAN_MOTION_DDOT": 0}, "tle": {"line1": "1 36231U 99025DVG 25355.18274354  .00000130  00000+0  93050-4 0  9998", "line2": "2 36231  98.6893 329.8533 0060178 309.2717  50.3125 14.12011872856624"}}, "geometry": {"type": "Point", "coordinates": [-26.53738400200465, -16.41699383365828]}}, {"type": "Feature", "properties": {"norad_id": 36232, "name": "FENGYUN 1C DEB", "group": "fengyun-1c-debris", "lat": -65.93628822027243, "lon": 139.95457648627558, "alt_km": 891.6811311669226, "timestamp": "2025-12-22T05:49:03.788157+00:00", "meta": {"OBJECT_NAME": "FENGYUN 1C DEB", "OBJECT_ID": "1999-025DVH", "EPOCH": "2025-12-13T16:38:24.949248", "MEAN_MOTION": 14.12503312, "ECCENTRICITY": 0.01190746, "INCLINATION": 98.7046, "RA_OF_ASC_NODE": 331.7114, "ARG_OF_PERICENTER": 25.4348, "MEAN_ANOMALY": 335.262, "EPHEMERIS_TYPE": 0, "CLASSIFICATION_TYPE": "U", "NORAD_CAT_ID": 36232, "ELEMENT_SET_NO": 999, "REV_AT_EPOCH": 61749, "BSTAR": 0.00047398926, "MEAN_MOTION_DOT": 8.94e-06, "MEAN_MOTION_DDOT": 0}, "tle": {"line1": "1 36232U 99025DVH 25347.69334432  .00000894  00000+0  47399-3 0  9991", "line2": "2 36232  98.7046 331.7114 0119074  25.4348 335.2620 14.12503312617490"}}, "geometry": {"type": "Point", "coordinates": [139.95457648627558, -65.93628822027243]}}, {"type": "Feature", "properties": {"norad_id": 36234, "name": "FENGYUN 1C DEB", "group": "fengyun-1c-debris", "lat": -54.910850835343645, "lon": -127.94843318663402, "alt_km": 1237.7887841693928, "timestamp": "2025-12-22T05:49:03.788167+00:00", "meta": {"OBJECT_NAME": "FENGYUN 1C DEB", "OBJECT_ID": "1999-025DVK", "EPOCH": "2025-12-08T10:31:28.850304", "MEAN_MOTION": 13.45655828, "ECCENTRICITY": 0.03174488, "INCLINATION": 99.0031, "RA_OF_ASC_NODE": 52.6849, "ARG_OF_PERICENTER": 39.1104, "MEAN_ANOMALY": 323.2521, "EPHEMERIS_TYPE": 0, "CLASSIFICATION_TYPE": "U", "NORAD_CAT_ID": 36234, "ELEMENT_SET_NO": 999, "REV_AT_EPOCH": 87889, "BSTAR": 0.00050484626, "MEAN_MOTION_DOT": 3.7e-06, "MEAN_MOTION_DDOT": 0}, "tle": {"line1": "1 36234U 99025DVK 25342.43852836  .00000370  00000+0  50485-3 0  9992", "line2": "2 36234  99.0031  52.6849 0317448  39.1104 323.2521 13.45655828878896"}}, "geometry": {"type": "Point", "coordinates": [-127.94843318663402, -54.910850835343645]}}, {"type": "Feature", "properties": {"norad_id": 36236, "name": "FENGYUN 1C DEB", "group": "fengyun-1c-debris", "lat": 15.472015600621644, "lon": -141.46897074812358, "alt_km": 1064.9878378853937, "timestamp": "2025-12-22T05:49:03.788177+00:00", "meta": {"OBJECT_NAME": "FENGYUN 1C DEB", "OBJECT_ID": "1999-025DVM", "EPOCH": "2025-12-10T20:13:13.163808", "MEAN_MOTION": 13.81954009, "ECCENTRICITY": 0.0149575, "INCLINATION": 98.85, "RA_OF_ASC_NODE": 25.3566, "ARG_OF_PERICENTER": 3.3066, "MEAN_ANOMALY": 356.9043, "EPHEMERIS_TYPE": 0, "CLASSIFICATION_TYPE": "U", "NORAD_CAT_ID": 36236, "ELEMENT_SET_NO": 999, "REV_AT_EPOCH": 59721, "BSTAR": 0.00040381, "MEAN_MOTION_DOT": 4.31e-06, "MEAN_MOTION_DDOT": 0}, "tle": {"line1": "1 36236U 99025DVM 25344.84251347  .00000431  00000+0  40381-3 0  9993", "line2": "2 36236  98.8500  25.3566 0149575   3.3066 356.9043 13.81954009597212"}}, "geometry": {"type": "Point", "coordinates": [-141.46897074812358, 15.472015600621644]}}, {"type": "Feature", "properties": {"norad_id": 36238, "name": "FENGYUN 1C DEB", "group": "fengyun-1c-debris", "lat": -79.47179839750106, "lon": 93.40728833557228, "alt_km": 844.2341149335998, "timestamp": "2025-12-22T05:49:03.788188+00:00", "meta": {"OBJECT_NAME": "FENGYUN 1C DEB", "OBJECT_ID": "1999-025DVP", "EPOCH": "2025-12-19T15:21:49.148352", "MEAN_MOTION": 14.12392478, "ECCENTRICITY": 0.0020073, "INCLINATION": 98.6476, "RA_OF_ASC_NODE": 325.8662, "ARG_OF_PERICENTER": 261.1573, "MEAN_ANOMALY": 98.7326, "EPHEMERIS_TYPE": 0, "CLASSIFICATION_TYPE": "U", "NORAD_CAT_ID": 36238, "ELEMENT_SET_NO": 999, "REV_AT_EPOCH": 87115, "BSTAR": 6.982e-05, "MEAN_MOTION_DOT": 8.7e-07, "MEAN_MOTION_DDOT": 0}, "tle": {"line1": "1 36238U 99025DVP 25353.64015218  .00000087  00000+0  69820-4 0  9995", "line2": "2 36238  98.6476 325.8662 0020073 261.1573  98.7326 14.12392478871151"}}, "geometry": {"type": "Point", "coordinates": [93.40728833557228, -79.47179839750106]}}, {"type": "Feature", "properties": {"norad_id": 36244, "name": "FENGYUN 1C DEB", "group": "fengyun-1c-debris", "lat": -56.25434189050378, "lon": -86.58237873729453, "alt_km": 781.8264885695316, "timestamp": "2025-12-22T05:49:03.788198+00:00", "meta": {"OBJECT_NAME": "FENGYUN 1C DEB", "OBJECT_ID": "1999-025DVV", "EPOCH": "2025-12-21T18:35:36.589920", "MEAN_MOTION": 14.25031478, "ECCENTRICITY": 0.0049599, "INCLINATION": 98.9267, "RA_OF_ASC_NODE": 106.5494, "ARG_OF_PERICENTER": 258.3567, "MEAN_ANOMALY": 101.2043, "EPHEMERIS_TYPE": 0, "CLASSIFICATION_TYPE": "U", "NORAD_CAT_ID": 36244, "ELEMENT_SET_NO": 999, "REV_AT_EPOCH": 92107, "BSTAR": 0.0013447, "MEAN_MOTION_DOT": 3.145e-05, "MEAN_MOTION_DDOT": 0}, "tle": {"line1": "1 36244U 99025DVV 25355.77472905  .00003145  00000+0  13447-2 0  9998", "line2": "2 36244  98.9267 106.5494 0049599 258.3567 101.2043 14.25031478921078"}}, "geometry": {"type": "Point", "coordinates": [-86.58237873729453, -56.25434189050378]}}, {"type": "Feature", "properties": {"norad_id": 36247, "name": "FENGYUN 1C DEB", "group": "fengyun-1c-debris", "lat": 57.29487940215838, "lon": -158.01380912441857, "alt_km": 831.194191645599, "timestamp": "2025-12-22T05:49:03.788208+00:00", "meta": {"OBJECT_NAME": "FENGYUN 1C DEB", "OBJECT_ID": "1999-025DVY", "EPOCH": "2025-12-21T19:12:42.359328", "MEAN_MOTION": 14.33610303, "ECCENTRICITY": 0.0186671, "INCLINATION": 98.2673, "RA_OF_ASC_NODE": 8.4766, "ARG_OF_PERICENTER": 6.791, "MEAN_ANOMALY": 353.574, "EPHEMERIS_TYPE": 0, "CLASSIFICATION_TYPE": "U", "NORAD_CAT_ID": 36247, "ELEMENT_SET_NO": 999, "REV_AT_EPOCH": 70392, "BSTAR": 0.00038517, "MEAN_MOTION_DOT": 1.25e-05, "MEAN_MOTION_DDOT": 0}, "tle": {"line1": "1 36247U 99025DVY 25355.80049027  .00001250  00000+0  38517-3 0  9991", "line2": "2 36247  98.2673   8.4766 0186671   6.7910 353.5740 14.33610303703924"}}, "geometry": {"type": "Point", "coordinates": [-158.01380912441857, 57.29487940215838]}}, {"type": "Feature", "properties": {"norad_id": 36254, "name": "FENGYUN 1C DEB", "group": "fengyun-1c-debris", "lat": -13.464600494590657, "lon": 130.50604725664536, "alt_km": 540.7890045485319, "timestamp": "2025-12-22T05:49:03.788220+00:00", "meta": {"OBJECT_NAME": "FENGYUN 1C DEB", "OBJECT_ID": "1999-025DWF", "EPOCH": "2025-12-05T14:18:33.769152", "MEAN_MOTION": 15.16034114, "ECCENTRICITY": 0.00460205, "INCLINATION": 99.5281, "RA_OF_ASC_NODE": 291.8918, "ARG_OF_PERICENTER": 66.714, "MEAN_ANOMALY": 293.892, "EPHEMERIS_TYPE": 0, "CLASSIFICATION_TYPE": "U", "NORAD_CAT_ID": 36254, "ELEMENT_SET_NO": 999, "REV_AT_EPOCH": 60668, "BSTAR": 0.005730812, "MEAN_MOTION_DOT": 0.00114745, "MEAN_MOTION_DDOT": 0}, "tle": {"line1": "1 36254U 99025DWF 25339.59622418  .00114745  00000+0  57308-2 0  9990", "line2": "2 36254  99.5281 291.8918 0046020  66.7140 293.8920 15.16034114606685"}}, "geometry": {"type": "Point", "coordinates": [130.50604725664536, -13.464600494590657]}}, {"type": "Feature", "properties": {"norad_id": 36255, "name": "FENGYUN 1C DEB", "group": "fengyun-1c-debris", "lat": -2.705847369066742, "lon": -81.75553448710198, "alt_km": 807.1917403494699, "timestamp": "2025-12-22T05:49:03.788233+00:00", "meta": {"OBJECT_NAME": "FENGYUN 1C DEB", "OBJECT_ID": "1999-025DWG", "EPOCH": "2025-12-19T13:28:01.680384", "MEAN_MOTION": 14.36594643, "ECCENTRICITY": 0.0064178, "INCLINATION": 99.4355, "RA_OF_ASC_NODE": 274.859, "ARG_OF_PERICENTER": 143.5444, "MEAN_ANOMALY": 35.1872, "EPHEMERIS_TYPE": 0, "CLASSIFICATION_TYPE": "U", "NORAD_CAT_ID": 36255, "ELEMENT_SET_NO": 999, "REV_AT_EPOCH": 64108, "BSTAR": 0.00048244, "MEAN_MOTION_DOT": 1.401e-05, "MEAN_MOTION_DDOT": 0}, "tle": {"line1": "1 36255U 99025DWG 25353.56113056  .00001401  00000+0  48244-3 0  9991", "line2": "2 36255  99.4355 274.8590 0064178 143.5444  35.1872 14.36594643641084"}}, "geometry": {"type": "Point", "coordinates": [-81.75553448710198, -2.705847369066742]}}]}